METAR CYDC 020000Z 24008KT 160V260 25SM FEW085 FEW094 FEW110 FEW270 20/M01 A2978 RMK CU1AC1AC1CI1 AC TR AC TR CI TR SLP083 DENSITY ALT 3600FT
METAR LFPG 100600Z AUTO VRB03KT 0800 0350 R27L/0800U R09R/1200U R26R/P2000 R08L/P2000 R26L/P2000 R08R/P2000 R27R/0450N R09L/0800U FG VV/// 15/15 Q1006 TEMPO 0500 FG FEW015TCU BKN020CB=
METAR KADM 290150Z 00000KT 10SM TS SCT004 SCT031 BKN050 08/07 A3011 RMK LTG DSNT ALQDS
METAR KOZA 290235Z AUTO 18016G19KT 2 1/2SM BR OVC004 13/12 A3007 RMK AO2 LTG DSNT NE
METAR KMFR 161753Z 00000KT 1/4SM R14/1000V1200FT FG VV002 00/M01 A3026 RMK AO2 SLP258 I1001 I6005 T00001006 10000 21017 53008
METAR KSLN 210553Z AUTO 02014KT 5SM BR OVC009 01/M01 A2982 RMK AO2 UPB11E12B44E47FZRAB29E44SNE11B12E14 CIG 007V014 SLP107 P0000 60005 T00061011 10011 20006 400330006 51016 TSNO
METAR CYXX 212100Z 23009KT 25SM FEW035 FEW040 SCT062 OVC075 19/13 A3028 RMK CU1SC2SC2AC4 CU TR SLP256 DENSITY ALT 400FT
METAR KBOS 271454Z 27018G25KT 10SM R04R/6000VP6000FT +RA -TSRA SCT030 BKN080 12/03 A2941 RMK AO2 PK WND 28032/1420 SFC VIS 10 DZE36RAB36E39 OCNL LTGICCC DSNT E-SE SLP958 T01220028 53036 $
METAR KDEN 262053Z 34006KT 10SM FEW050 SCT100 BKN220 23/M02 A2987 RMK AO2 SLP060 60000 VIRGA DSNT SE-SW AND W ACSL DSNT W MOV S-SW T02281017 10161  20056  58004 83311195 413230322 PWINO TSNO
METAR LFPO 271450Z 24005KT 170V260 CAVOK 19/02 Q1013 NOSIG RMK RWY17L 23006KT RWY05 24005KT 210V270 RWY23 24007KT