TAF KJFK 061730Z 0618/0724 28008KT 9999 FEW250
TAF KDEN 061720Z 0618/0718 18012KT P6SM FEW080 BKN120 TEMPO 0620/0624 3SM TSRA BKN040CB
